DUPLEX                  
1 66906U 98067XS  26098.23508606  .00030483  00000+0  40026-3 0  9994
2 66906  51.6285 281.4516 0003535 256.1201 103.9398 15.58244791 19735
ISS OBJECT XT           
1 66907U 98067XT  26097.77263479  .00297853  00000+0  13696-2 0  9997
2 66907  51.6215 276.0571 0008073 270.4626  89.5451 15.82196423 19769
ISS OBJECT XU           
1 66908U 98067XU  26098.20874164  .00335037  00000+0  14851-2 0  9997
2 66908  51.6215 273.7132 0008232 272.3847  87.6213 15.82883323 19835
SILVERSAT               
1 66909U 98067XV  26098.18113191  .00565523  13648-3  16887-2 0  9993
2 66909  51.6166 271.9998 0010520 281.7129  78.2696 15.91711634 19859
ISS OBJECT XW           
1 66910U 98067XW  26097.53855235  .00241496  00000+0  12547-2 0  9998
2 66910  51.6198 277.4863 0008002 263.9225  96.0864 15.79698833 19721
ISS OBJECT XX           
1 66911U 98067XX  26097.74712793  .01567250  16410-2  19821-2 0  9990
2 66911  51.6105 272.0434 0013060 286.9914  72.9667 16.07019033 19809
ISS OBJECT XY           
1 66912U 98067XY  26097.79477171  .00118972  00000+0  94676-3 0  9993
2 66912  51.6248 279.2415 0005463 262.8563  97.1814 15.70311218 19719
KNACKSAT-2              
1 67683U 98067XZ  26097.81203625  .00040284  00000+0  60508-3 0  9990
2 67683  51.6306 286.8782 0010798 294.1615  65.8246 15.54410915  9316
CORAL                   
1 67684U 98067YA  26098.22640475  .00097344  00000+0  11749-2 0  9996
2 67684  51.6289 283.6452 0014049 287.1662  72.7792 15.59844036  9394
GXIBA-1                 
1 67685U 98067YB  26097.79815494  .00045533  00000+0  66539-3 0  9994
2 67685  51.6302 286.7855 0012745 290.8991  69.0635 15.55079713  9314
UITMSAT-2               
1 67686U 98067YC  26098.22605303  .00061248  00000+0  85088-3 0  9991
2 67686  51.6305 284.3962 0009828 268.9819  91.0047 15.56362589  9380
HMU-SAT2                
1 67687U 98067YD  26097.54770478  .00042060  00000+0  62354-3 0  9994
2 67687  51.6309 288.1167 0009201 267.8152  92.1785 15.54767252  9191
LEOPARD                 
1 67688U 98067YE  26098.23605571  .00054476  00000+0  77437-3 0  9995
2 67688  51.6305 284.4636 0009456 269.4725  90.5183 15.55795388  9303
CREW DRAGON 12          
1 67796U 26031A   26098.00520295  .00007234  00000+0  14015-3 0  9994
2 67796  51.6328 287.4161 0006332 285.7518  74.2772 15.48824658560899
PROGRESS-MS 33          
1 68319U 26058A   26098.00520295  .00007234  00000+0  14015-3 0  9995
2 68319  51.6328 287.4161 0006332 285.7518  74.2772 15.48824658  2241
