[{"OBJECT_NAME":"DUPLEX","OBJECT_ID":"1998-067XS","EPOCH":"2026-04-08T05:38:31.435584","MEAN_MOTION":15.58244791,"ECCENTRICITY":0.00035358,"INCLINATION":51.6285,"RA_OF_ASC_NODE":281.4516,"ARG_OF_PERICENTER":256.1201,"MEAN_ANOMALY":103.9398,"EPHEMERIS_TYPE":0,"CLASSIFICATION_TYPE":"U","NORAD_CAT_ID":66906,"ELEMENT_SET_NO":999,"REV_AT_EPOCH":1973,"BSTAR":0.00040025637,"MEAN_MOTION_DOT":0.00030483,"MEAN_MOTION_DDOT":0},{"OBJECT_NAME":"ISS OBJECT XT","OBJECT_ID":"1998-067XT","EPOCH":"2026-04-07T18:32:35.645856","MEAN_MOTION":15.82196423,"ECCENTRICITY":0.0008073,"INCLINATION":51.6215,"RA_OF_ASC_NODE":276.0571,"ARG_OF_PERICENTER":270.4626,"MEAN_ANOMALY":89.5451,"EPHEMERIS_TYPE":0,"CLASSIFICATION_TYPE":"U","NORAD_CAT_ID":66907,"ELEMENT_SET_NO":999,"REV_AT_EPOCH":1976,"BSTAR":0.0013696,"MEAN_MOTION_DOT":0.00297853,"MEAN_MOTION_DDOT":0},{"OBJECT_NAME":"ISS OBJECT XU","OBJECT_ID":"1998-067XU","EPOCH":"2026-04-08T05:00:35.277696","MEAN_MOTION":15.82883323,"ECCENTRICITY":0.0008232,"INCLINATION":51.6215,"RA_OF_ASC_NODE":273.7132,"ARG_OF_PERICENTER":272.3847,"MEAN_ANOMALY":87.6213,"EPHEMERIS_TYPE":0,"CLASSIFICATION_TYPE":"U","NORAD_CAT_ID":66908,"ELEMENT_SET_NO":999,"REV_AT_EPOCH":1983,"BSTAR":0.0014850563,"MEAN_MOTION_DOT":0.00335037,"MEAN_MOTION_DDOT":0},{"OBJECT_NAME":"SILVERSAT","OBJECT_ID":"1998-067XV","EPOCH":"2026-04-08T04:20:49.797024","MEAN_MOTION":15.91711634,"ECCENTRICITY":0.00105209,"INCLINATION":51.6166,"RA_OF_ASC_NODE":271.9998,"ARG_OF_PERICENTER":281.7129,"MEAN_ANOMALY":78.2696,"EPHEMERIS_TYPE":0,"CLASSIFICATION_TYPE":"U","NORAD_CAT_ID":66909,"ELEMENT_SET_NO":999,"REV_AT_EPOCH":1985,"BSTAR":0.0016886605,"MEAN_MOTION_DOT":0.00565523,"MEAN_MOTION_DDOT":0.0001364796},{"OBJECT_NAME":"ISS OBJECT XW","OBJECT_ID":"1998-067XW","EPOCH":"2026-04-07T12:55:30.923040","MEAN_MOTION":15.79698833,"ECCENTRICITY":0.00080021,"INCLINATION":51.6198,"RA_OF_ASC_NODE":277.4863,"ARG_OF_PERICENTER":263.9225,"MEAN_ANOMALY":96.0864,"EPHEMERIS_TYPE":0,"CLASSIFICATION_TYPE":"U","NORAD_CAT_ID":66910,"ELEMENT_SET_NO":999,"REV_AT_EPOCH":1972,"BSTAR":0.0012546506,"MEAN_MOTION_DOT":0.00241496,"MEAN_MOTION_DDOT":0},{"OBJECT_NAME":"ISS OBJECT XX","OBJECT_ID":"1998-067XX","EPOCH":"2026-04-07T17:55:51.853152","MEAN_MOTION":16.07019033,"ECCENTRICITY":0.00130607,"INCLINATION":51.6105,"RA_OF_ASC_NODE":272.0434,"ARG_OF_PERICENTER":286.9914,"MEAN_ANOMALY":72.9667,"EPHEMERIS_TYPE":0,"CLASSIFICATION_TYPE":"U","NORAD_CAT_ID":66911,"ELEMENT_SET_NO":999,"REV_AT_EPOCH":1980,"BSTAR":0.0019820538,"MEAN_MOTION_DOT":0.0156725,"MEAN_MOTION_DDOT":0.0016409664},{"OBJECT_NAME":"ISS OBJECT XY","OBJECT_ID":"1998-067XY","EPOCH":"2026-04-07T19:04:28.275744","MEAN_MOTION":15.70311218,"ECCENTRICITY":0.0005463,"INCLINATION":51.6248,"RA_OF_ASC_NODE":279.2415,"ARG_OF_PERICENTER":262.8563,"MEAN_ANOMALY":97.1814,"EPHEMERIS_TYPE":0,"CLASSIFICATION_TYPE":"U","NORAD_CAT_ID":66912,"ELEMENT_SET_NO":999,"REV_AT_EPOCH":1971,"BSTAR":0.00094676404,"MEAN_MOTION_DOT":0.00118972,"MEAN_MOTION_DDOT":0},{"OBJECT_NAME":"KNACKSAT-2","OBJECT_ID":"1998-067XZ","EPOCH":"2026-04-07T19:29:19.932000","MEAN_MOTION":15.54410915,"ECCENTRICITY":0.00107987,"INCLINATION":51.6306,"RA_OF_ASC_NODE":286.8782,"ARG_OF_PERICENTER":294.1615,"MEAN_ANOMALY":65.8246,"EPHEMERIS_TYPE":0,"CLASSIFICATION_TYPE":"U","NORAD_CAT_ID":67683,"ELEMENT_SET_NO":999,"REV_AT_EPOCH":931,"BSTAR":0.00060508099,"MEAN_MOTION_DOT":0.00040284,"MEAN_MOTION_DDOT":0},{"OBJECT_NAME":"CORAL","OBJECT_ID":"1998-067YA","EPOCH":"2026-04-08T05:26:01.370400","MEAN_MOTION":15.59844036,"ECCENTRICITY":0.00140499,"INCLINATION":51.6289,"RA_OF_ASC_NODE":283.6452,"ARG_OF_PERICENTER":287.1662,"MEAN_ANOMALY":72.7792,"EPHEMERIS_TYPE":0,"CLASSIFICATION_TYPE":"U","NORAD_CAT_ID":67684,"ELEMENT_SET_NO":999,"REV_AT_EPOCH":939,"BSTAR":0.0011748945,"MEAN_MOTION_DOT":0.00097344,"MEAN_MOTION_DDOT":0},{"OBJECT_NAME":"GXIBA-1","OBJECT_ID":"1998-067YB","EPOCH":"2026-04-07T19:09:20.586816","MEAN_MOTION":15.55079713,"ECCENTRICITY":0.00127458,"INCLINATION":51.6302,"RA_OF_ASC_NODE":286.7855,"ARG_OF_PERICENTER":290.8991,"MEAN_ANOMALY":69.0635,"EPHEMERIS_TYPE":0,"CLASSIFICATION_TYPE":"U","NORAD_CAT_ID":67685,"ELEMENT_SET_NO":999,"REV_AT_EPOCH":931,"BSTAR":0.00066539212,"MEAN_MOTION_DOT":0.00045533,"MEAN_MOTION_DDOT":0},{"OBJECT_NAME":"UITMSAT-2","OBJECT_ID":"1998-067YC","EPOCH":"2026-04-08T05:25:30.981792","MEAN_MOTION":15.56362589,"ECCENTRICITY":0.00098284,"INCLINATION":51.6305,"RA_OF_ASC_NODE":284.3962,"ARG_OF_PERICENTER":268.9819,"MEAN_ANOMALY":91.0047,"EPHEMERIS_TYPE":0,"CLASSIFICATION_TYPE":"U","NORAD_CAT_ID":67686,"ELEMENT_SET_NO":999,"REV_AT_EPOCH":938,"BSTAR":0.00085087524,"MEAN_MOTION_DOT":0.00061248,"MEAN_MOTION_DDOT":0},{"OBJECT_NAME":"HMU-SAT2","OBJECT_ID":"1998-067YD","EPOCH":"2026-04-07T13:08:41.692992","MEAN_MOTION":15.54767252,"ECCENTRICITY":0.00092014,"INCLINATION":51.6309,"RA_OF_ASC_NODE":288.1167,"ARG_OF_PERICENTER":267.8152,"MEAN_ANOMALY":92.1785,"EPHEMERIS_TYPE":0,"CLASSIFICATION_TYPE":"U","NORAD_CAT_ID":67687,"ELEMENT_SET_NO":999,"REV_AT_EPOCH":919,"BSTAR":0.00062354053,"MEAN_MOTION_DOT":0.0004206,"MEAN_MOTION_DDOT":0},{"OBJECT_NAME":"LEOPARD","OBJECT_ID":"1998-067YE","EPOCH":"2026-04-08T05:39:55.213344","MEAN_MOTION":15.55795388,"ECCENTRICITY":0.00094567,"INCLINATION":51.6305,"RA_OF_ASC_NODE":284.4636,"ARG_OF_PERICENTER":269.4725,"MEAN_ANOMALY":90.5183,"EPHEMERIS_TYPE":0,"CLASSIFICATION_TYPE":"U","NORAD_CAT_ID":67688,"ELEMENT_SET_NO":999,"REV_AT_EPOCH":930,"BSTAR":0.00077436508,"MEAN_MOTION_DOT":0.00054476,"MEAN_MOTION_DDOT":0},{"OBJECT_NAME":"CREW DRAGON 12","OBJECT_ID":"2026-031A","EPOCH":"2026-04-08T00:07:29.534880","MEAN_MOTION":15.48824658,"ECCENTRICITY":0.00063328,"INCLINATION":51.6328,"RA_OF_ASC_NODE":287.4161,"ARG_OF_PERICENTER":285.7518,"MEAN_ANOMALY":74.2772,"EPHEMERIS_TYPE":0,"CLASSIFICATION_TYPE":"U","NORAD_CAT_ID":67796,"ELEMENT_SET_NO":999,"REV_AT_EPOCH":56089,"BSTAR":0.00014015075,"MEAN_MOTION_DOT":7.234e-5,"MEAN_MOTION_DDOT":0},{"OBJECT_NAME":"PROGRESS-MS 33","OBJECT_ID":"2026-058A","EPOCH":"2026-04-08T00:07:29.534880","MEAN_MOTION":15.48824658,"ECCENTRICITY":0.00063328,"INCLINATION":51.6328,"RA_OF_ASC_NODE":287.4161,"ARG_OF_PERICENTER":285.7518,"MEAN_ANOMALY":74.2772,"EPHEMERIS_TYPE":0,"CLASSIFICATION_TYPE":"U","NORAD_CAT_ID":68319,"ELEMENT_SET_NO":999,"REV_AT_EPOCH":224,"BSTAR":0.00014015075,"MEAN_MOTION_DOT":7.234e-5,"MEAN_MOTION_DDOT":0}]
